{
  "type": "FeatureCollection",
  "features": [
    {
      "type": "Feature",
      "properties": {
        "norad_id": 41581,
        "name": "INTELSAT 31 (IS-31)",
        "group": "intelsat",
        "lat": -0.002394196764817391,
        "lon": 138.1602700291681,
        "alt_km": 35782.891497949626,
        "timestamp": "2025-12-20T09:36:01.299701+00:00",
        "meta_object_name": "INTELSAT 31 (IS-31)",
        "meta_object_id": "2016-035A",
        "meta_epoch": "2025-12-20T05:04:10.677216",
        "meta_mean_motion": 1.00271438,
        "meta_eccentricity": 0.0001965,
        "meta_inclination": 0.0255,
        "meta_ra_of_asc_node": 272.537,
        "meta_arg_of_pericenter": 291.8357,
        "meta_mean_anomaly": 225.6712,
        "meta_ephemeris_type": 0,
        "meta_classification_type": "U",
        "meta_norad_cat_id": 41581,
        "meta_element_set_no": 999,
        "meta_rev_at_epoch": 3488,
        "meta_bstar": 0,
        "meta_mean_motion_dot": -1.27e-06,
        "meta_mean_motion_ddot": 0,
        "tle_line1": "1 41581U 16035A   25354.21123469 -.00000127  00000+0  00000+0 0  9990",
        "tle_line2": "2 41581   0.0255 272.5370 0001965 291.8357 225.6712  1.00271438 34889"
      },
      "geometry": {
        "type": "Point",
        "coordinates": [
          138.1602700291681,
          -0.002394196764817391
        ]
      }
    },
    {
      "type": "Feature",
      "properties": {
        "norad_id": 41747,
        "name": "INTELSAT 36 (IS-36)",
        "group": "intelsat",
        "lat": -0.031838109321410284,
        "lon": -58.29267022135489,
        "alt_km": 35782.56042057956,
        "timestamp": "2025-12-20T09:36:01.299713+00:00",
        "meta_object_name": "INTELSAT 36 (IS-36)",
        "meta_object_id": "2016-053A",
        "meta_epoch": "2025-12-19T22:08:53.364768",
        "meta_mean_motion": 1.00270121,
        "meta_eccentricity": 0.0001172,
        "meta_inclination": 0.0108,
        "meta_ra_of_asc_node": 359.0109,
        "meta_arg_of_pericenter": 338.9337,
        "meta_mean_anomaly": 151.5298,
        "meta_ephemeris_type": 0,
        "meta_classification_type": "U",
        "meta_norad_cat_id": 41747,
        "meta_element_set_no": 999,
        "meta_rev_at_epoch": 3415,
        "meta_bstar": 0,
        "meta_mean_motion_dot": 0,
        "meta_mean_motion_ddot": 0,
        "tle_line1": "1 41747U 16053A   25353.92283987  .00000000  00000+0  00000+0 0  9992",
        "tle_line2": "2 41747   0.0108 359.0109 0001172 338.9337 151.5298  1.00270121 34156"
      },
      "geometry": {
        "type": "Point",
        "coordinates": [
          -58.29267022135489,
          -0.031838109321410284
        ]
      }
    },
    {
      "type": "Feature",
      "properties": {
        "norad_id": 41945,
        "name": "INTELSAT 32E (IS-32E)",
        "group": "intelsat",
        "lat": 0.02260896680625128,
        "lon": -169.95714313420422,
        "alt_km": 35789.5532615007,
        "timestamp": "2025-12-20T09:36:01.299725+00:00",
        "meta_object_name": "INTELSAT 32E (IS-32E)",
        "meta_object_id": "2017-007B",
        "meta_epoch": "2025-12-19T06:12:37.307232",
        "meta_mean_motion": 1.00269829,
        "meta_eccentricity": 7.1e-05,
        "meta_inclination": 0.0325,
        "meta_ra_of_asc_node": 74.0804,
        "meta_arg_of_pericenter": 315.5885,
        "meta_mean_anomaly": 108.4146,
        "meta_ephemeris_type": 0,
        "meta_classification_type": "U",
        "meta_norad_cat_id": 41945,
        "meta_element_set_no": 999,
        "meta_rev_at_epoch": 3242,
        "meta_bstar": 0,
        "meta_mean_motion_dot": -2.44e-06,
        "meta_mean_motion_ddot": 0,
        "tle_line1": "1 41945U 17007B   25353.25876513 -.00000244  00000+0  00000+0 0  9992",
        "tle_line2": "2 41945   0.0325  74.0804 0000710 315.5885 108.4146  1.00269829 32423"
      },
      "geometry": {
        "type": "Point",
        "coordinates": [
          -169.95714313420422,
          0.02260896680625128
        ]
      }
    },
    {
      "type": "Feature",
      "properties": {
        "norad_id": 42818,
        "name": "INTELSAT 35E (IS-35E)",
        "group": "intelsat",
        "lat": -0.005610461667815452,
        "lon": -161.27729807425445,
        "alt_km": 35783.95613156708,
        "timestamp": "2025-12-20T09:36:01.299737+00:00",
        "meta_object_name": "INTELSAT 35E (IS-35E)",
        "meta_object_id": "2017-041A",
        "meta_epoch": "2025-12-20T02:47:38.581728",
        "meta_mean_motion": 1.00271193,
        "meta_eccentricity": 0.0001847,
        "meta_inclination": 0.0187,
        "meta_ra_of_asc_node": 21.3216,
        "meta_arg_of_pericenter": 250.2139,
        "meta_mean_anomaly": 184.8437,
        "meta_ephemeris_type": 0,
        "meta_classification_type": "U",
        "meta_norad_cat_id": 42818,
        "meta_element_set_no": 999,
        "meta_rev_at_epoch": 3102,
        "meta_bstar": 0,
        "meta_mean_motion_dot": -2.14e-06,
        "meta_mean_motion_ddot": 0,
        "tle_line1": "1 42818U 17041A   25354.11641877 -.00000214  00000+0  00000+0 0  9996",
        "tle_line2": "2 42818   0.0187  21.3216 0001847 250.2139 184.8437  1.00271193 31023"
      },
      "geometry": {
        "type": "Point",
        "coordinates": [
          -161.27729807425445,
          -0.005610461667815452
        ]
      }
    },
    {
      "type": "Feature",
      "properties": {
        "norad_id": 42950,
        "name": "INTELSAT 37E (IS-37E)",
        "group": "intelsat",
        "lat": -0.020072578835947947,
        "lon": -144.80975924114475,
        "alt_km": 35777.73909683735,
        "timestamp": "2025-12-20T09:36:01.299748+00:00",
        "meta_object_name": "INTELSAT 37E (IS-37E)",
        "meta_object_id": "2017-059A",
        "meta_epoch": "2025-12-20T03:07:38.561088",
        "meta_mean_motion": 1.00269249,
        "meta_eccentricity": 0.0002971,
        "meta_inclination": 0.0268,
        "meta_ra_of_asc_node": 21.4208,
        "meta_arg_of_pericenter": 237.6213,
        "meta_mean_anomaly": 218.8235,
        "meta_ephemeris_type": 0,
        "meta_classification_type": "U",
        "meta_norad_cat_id": 42950,
        "meta_element_set_no": 999,
        "meta_rev_at_epoch": 3027,
        "meta_bstar": 0,
        "meta_mean_motion_dot": 0,
        "meta_mean_motion_ddot": 0,
        "tle_line1": "1 42950U 17059A   25354.13030742  .00000000  00000+0  00000+0 0  9999",
        "tle_line2": "2 42950   0.0268  21.4208 0002971 237.6213 218.8235  1.00269249 30272"
      },
      "geometry": {
        "type": "Point",
        "coordinates": [
          -144.80975924114475,
          -0.020072578835947947
        ]
      }
    },
    {
      "type": "Feature",
      "properties": {
        "norad_id": 43632,
        "name": "AZERSPACE 2 (IS-38)",
        "group": "intelsat",
        "lat": -0.02921347385581702,
        "lon": -81.65448703604967,
        "alt_km": 35781.423438511396,
        "timestamp": "2025-12-20T09:36:01.299760+00:00",
        "meta_object_name": "AZERSPACE 2 (IS-38)",
        "meta_object_id": "2018-074A",
        "meta_epoch": "2025-12-20T03:10:21.406944",
        "meta_mean_motion": 1.00270783,
        "meta_eccentricity": 0.0001162,
        "meta_inclination": 0.0088,
        "meta_ra_of_asc_node": 38.2345,
        "meta_arg_of_pericenter": 236.084,
        "meta_mean_anomaly": 267.3565,
        "meta_ephemeris_type": 0,
        "meta_classification_type": "U",
        "meta_norad_cat_id": 43632,
        "meta_element_set_no": 999,
        "meta_rev_at_epoch": 2665,
        "meta_bstar": 0,
        "meta_mean_motion_dot": 1.6e-06,
        "meta_mean_motion_ddot": 0,
        "tle_line1": "1 43632U 18074A   25354.13219221  .00000160  00000+0  00000+0 0  9993",
        "tle_line2": "2 43632   0.0088  38.2345 0001162 236.0840 267.3565  1.00270783 26655"
      },
      "geometry": {
        "type": "Point",
        "coordinates": [
          -81.65448703604967,
          -0.02921347385581702
        ]
      }
    },
    {
      "type": "Feature",
      "properties": {
        "norad_id": 43633,
        "name": "HORIZONS-3E",
        "group": "intelsat",
        "lat": -0.0024809975929098037,
        "lon": 42.20981418759663,
        "alt_km": 35786.88472109006,
        "timestamp": "2025-12-20T09:36:01.299771+00:00",
        "meta_object_name": "HORIZONS-3E",
        "meta_object_id": "2018-074B",
        "meta_epoch": "2025-12-20T02:16:38.768160",
        "meta_mean_motion": 1.00269754,
        "meta_eccentricity": 6.34e-05,
        "meta_inclination": 0.0095,
        "meta_ra_of_asc_node": 238.269,
        "meta_arg_of_pericenter": 69.0895,
        "meta_mean_anomaly": 344.7114,
        "meta_ephemeris_type": 0,
        "meta_classification_type": "U",
        "meta_norad_cat_id": 43633,
        "meta_element_set_no": 999,
        "meta_rev_at_epoch": 2654,
        "meta_bstar": 0,
        "meta_mean_motion_dot": 0,
        "meta_mean_motion_ddot": 0,
        "tle_line1": "1 43633U 18074B   25354.09489315  .00000000  00000+0  00000+0 0  9995",
        "tle_line2": "2 43633   0.0095 238.2690 0000634  69.0895 344.7114  1.00269754 26540"
      },
      "geometry": {
        "type": "Point",
        "coordinates": [
          42.20981418759663,
          -0.0024809975929098037
        ]
      }
    }
  ]
}